{"fetched_at":"2026-03-29T02:12:04Z","count":15717,"tles":[{"name":"GUOWANG GROUP 20 OBJECT*","line1":"1 68133U 26047E   26083.32146819 -.00000126  00000+0  15966-4 0  9993","line2":"2 68133  49.9979  10.8404 0003230 188.5214 171.5635 14.01339008  1620","category":"Other"}]}